[{"OBJECT_NAME":"STARLINK-34756","OBJECT_ID":"2025-152H","EPOCH":"2026-03-09T14:10:58.753920","MEAN_MOTION":15.02045938,"ECCENTRICITY":0.0002076,"INCLINATION":97.6002,"RA_OF_ASC_NODE":285.448,"ARG_OF_PERICENTER":81.1247,"MEAN_ANOMALY":279.0213,"EPHEMERIS_TYPE":0,"CLASSIFICATION_TYPE":"U","NORAD_CAT_ID":64849,"ELEMENT_SET_NO":999,"REV_AT_EPOCH":3540,"BSTAR":0.023165,"MEAN_MOTION_DOT":0.00317741,"MEAN_MOTION_DDOT":0},{"OBJECT_NAME":"CZ-3A DEB","OBJECT_ID":"2007-003H","EPOCH":"2026-03-08T23:24:40.379040","MEAN_MOTION":5.26070457,"ECCENTRICITY":0.52020634,"INCLINATION":24.0292,"RA_OF_ASC_NODE":171.2278,"ARG_OF_PERICENTER":264.566,"MEAN_ANOMALY":36.8086,"EPHEMERIS_TYPE":0,"CLASSIFICATION_TYPE":"U","NORAD_CAT_ID":35549,"ELEMENT_SET_NO":999,"REV_AT_EPOCH":16661,"BSTAR":0.018629131,"MEAN_MOTION_DOT":0.00076712,"MEAN_MOTION_DDOT":0}]
